     2.11           N: GPS NAV DATA                         RINEX VERSION / TYPE
teqc  2019Feb25                         20221121 12:27:36UTCPGM / RUN BY / DATE
OSX ker:10.11.6|Core i5|gcc 4.3 -m64|OSX ker:10.10+|=+      COMMENT
    8.3819D-09  1.4901D-08 -5.9605D-08 -5.9605D-08          ION ALPHA
    8.3968D+04  1.6384D+04 -1.3107D+05 -6.5536D+04          ION BETA
   -2.793967723846D-09-7.105427357601D-15   589824     1550 DELTA-UTC: A0,A1,T,W
                                                            END OF HEADER
20 09  9 23 23 59 44.0 7.157586514950D-05-9.094947017729D-13 0.000000000000D+00
    0.000000000000D+00 8.496875000000D+01 5.089140554560D-09 7.558588293770D-01
    4.436820745468D-06 3.843291779049D-03 5.407258868217D-06 5.153772666931D+03
    3.455840000000D+05-5.774199962616D-08-1.507107889779D+00 6.705522537231D-08
    9.400647647851D-01 2.636875000000D+02 1.316174190155D+00-8.478210294347D-09
   -3.000124967247D-11 1.000000000000D+00 1.550000000000D+03 0.000000000000D+00
    2.000000000000D+00 0.000000000000D+00-7.450580596924D-09 0.000000000000D+00
    3.413760000000D+05 4.000000000000D+00
